start=new Date('2021-10-30T00:00:00.000Z').valueOf();
sats=[{"INCLINATION":"53.0550","APOAPSIS":"548.378","OBJECT_NAME":"STARLINK-2689","ECCENTRICITY":"0.00016780","FILE":"3191844","MEAN_ELEMENT_THEORY":"SGP4","MEAN_MOTION_DDOT":"0.0000000000000","TIME_SYSTEM":"UTC","MEAN_MOTION":"15.06399353","OBJECT_TYPE":"PAYLOAD","PERIAPSIS":"546.053","GP_ID":"188469181","MEAN_ANOMALY":"281.6714","LAUNCH_DATE":"2021-05-09","OBJECT_ID":"2021-040AM","RA_OF_ASC_NODE":"138.4994","EPOCH":"2021-10-29T15:55:20.326080","CLASSIFICATION_TYPE":"U","REV_AT_EPOCH":"2654","SEMIMAJOR_AXIS":"6925.351","ELEMENT_SET_NO":"999","MEAN_MOTION_DOT":"0.00001864","ARG_OF_PERICENTER":"78.4463","TLE_LINE1":"1 48463U 21040AM  21302.66342970  .00001864  00000-0  14398-3 0  9994","COUNTRY_CODE":"US","EPHEMERIS_TYPE":"0","SITE":"AFETR","TLE_LINE2":"2 48463  53.0550 138.4994 0001678  78.4463 281.6714 15.06399353 26547","NORAD_CAT_ID":"48463","CENTER_NAME":"EARTH","RCS_SIZE":"LARGE","REF_FRAME":"TEME","PERIOD":"95.592","DECAY_DATE":null,"BSTAR":"0.00014398000000"},{"BSTAR":"0.00009694200000","PERIOD":"95.592","DECAY_DATE":null,"REF_FRAME":"TEME","NORAD_CAT_ID":"48464","CENTER_NAME":"EARTH","RCS_SIZE":"LARGE","EPHEMERIS_TYPE":"0","SITE":"AFETR","TLE_LINE2":"2 48464  53.0551 137.4020 0001945  69.5178 290.6020 15.06400998 26570","MEAN_MOTION_DOT":"0.00001163","ARG_OF_PERICENTER":"69.5178","COUNTRY_CODE":"US","TLE_LINE1":"1 48464U 21040AN  21302.90764439  .00001163  00000-0  96942-4 0  9998","EPOCH":"2021-10-29T21:47:00.475296","CLASSIFICATION_TYPE":"U","SEMIMAJOR_AXIS":"6925.345","ELEMENT_SET_NO":"999","REV_AT_EPOCH":"2657","RA_OF_ASC_NODE":"137.4020","LAUNCH_DATE":"2021-05-09","MEAN_ANOMALY":"290.6020","OBJECT_ID":"2021-040AN","MEAN_MOTION":"15.06400998","OBJECT_TYPE":"PAYLOAD","GP_ID":"188469410","PERIAPSIS":"545.864","MEAN_MOTION_DDOT":"0.0000000000000","TIME_SYSTEM":"UTC","MEAN_ELEMENT_THEORY":"SGP4","FILE":"3191844","ECCENTRICITY":"0.00019450","OBJECT_NAME":"STARLINK-2686","INCLINATION":"53.0551","APOAPSIS":"548.557"},{"PERIAPSIS":"546.044","GP_ID":"188469651","OBJECT_TYPE":"PAYLOAD","MEAN_MOTION":"15.06402801","MEAN_ANOMALY":"284.2601","LAUNCH_DATE":"2021-05-09","OBJECT_ID":"2021-040AP","MEAN_ELEMENT_THEORY":"SGP4","FILE":"3191844","TIME_SYSTEM":"UTC","MEAN_MOTION_DDOT":"0.0000000000000","APOAPSIS":"548.366","INCLINATION":"53.0557","ECCENTRICITY":"0.00016770","OBJECT_NAME":"STARLINK-2681","DECAY_DATE":null,"PERIOD":"95.592","BSTAR":"0.00012990000000","RCS_SIZE":"LARGE","CENTER_NAME":"EARTH","NORAD_CAT_ID":"48465","REF_FRAME":"TEME","COUNTRY_CODE":"US","TLE_LINE1":"1 48465U 21040AP  21302.71965821  .00001654  00000-0  12990-3 0  9991","ARG_OF_PERICENTER":"75.8574","MEAN_MOTION_DOT":"0.00001654","TLE_LINE2":"2 48465  53.0557 138.2334 0001677  75.8574 284.2601 15.06402801 26553","SITE":"AFETR","EPHEMERIS_TYPE":"0","RA_OF_ASC_NODE":"138.2334","SEMIMAJOR_AXIS":"6925.340","ELEMENT_SET_NO":"999","REV_AT_EPOCH":"2655","CLASSIFICATION_TYPE":"U","EPOCH":"2021-10-29T17:16:18.469344"},{"LAUNCH_DATE":"2021-05-09","MEAN_ANOMALY":"279.6205","OBJECT_ID":"2021-040AQ","MEAN_MOTION":"15.06387878","OBJECT_TYPE":"PAYLOAD","GP_ID":"188469985","PERIAPSIS":"545.745","MEAN_MOTION_DDOT":"0.0000000000000","TIME_SYSTEM":"UTC","MEAN_ELEMENT_THEORY":"SGP4","FILE":"3191844","ECCENTRICITY":"0.00021740","OBJECT_NAME":"STARLINK-2687","INCLINATION":"53.0604","APOAPSIS":"548.756","BSTAR":"-0.00003847900000","PERIOD":"95.593","DECAY_DATE":null,"REF_FRAME":"TEME","NORAD_CAT_ID":"48466","CENTER_NAME":"EARTH","RCS_SIZE":"LARGE","EPHEMERIS_TYPE":"0","SITE":"AFETR","TLE_LINE2":"2 48466  53.0604 137.4103 0002174  80.5030 279.6205 15.06387878 26582","MEAN_MOTION_DOT":"-0.00000855","ARG_OF_PERICENTER":"80.5030","COUNTRY_CODE":"US","TLE_LINE1":"1 48466U 21040AQ  21302.90398103 -.00000855  00000-0 -38479-4 0  9991","CLASSIFICATION_TYPE":"U","EPOCH":"2021-10-29T21:41:43.960992","ELEMENT_SET_NO":"999","SEMIMAJOR_AXIS":"6925.386","REV_AT_EPOCH":"2658","RA_OF_ASC_NODE":"137.4103"},{"REF_FRAME":"TEME","RCS_SIZE":"LARGE","NORAD_CAT_ID":"48467","CENTER_NAME":"EARTH","BSTAR":"0.00003987300000","DECAY_DATE":null,"PERIOD":"95.592","CLASSIFICATION_TYPE":"U","EPOCH":"2021-10-29T15:56:41.574048","SEMIMAJOR_AXIS":"6925.354","ELEMENT_SET_NO":"999","REV_AT_EPOCH":"2654","RA_OF_ASC_NODE":"138.4932","TLE_LINE2":"2 48467  53.0542 138.4932 0001846  82.4717 277.6481 15.06398090 26541","SITE":"AFETR","EPHEMERIS_TYPE":"0","COUNTRY_CODE":"US","TLE_LINE1":"1 48467U 21040AR  21302.66437007  .00000312  00000-0  39873-4 0  9997","MEAN_MOTION_DOT":"0.00000312","ARG_OF_PERICENTER":"82.4717","OBJECT_ID":"2021-040AR","LAUNCH_DATE":"2021-05-09","MEAN_ANOMALY":"277.6481","OBJECT_TYPE":"PAYLOAD","PERIAPSIS":"545.941","GP_ID":"188469535","MEAN_MOTION":"15.06398090","ECCENTRICITY":"0.00018460","OBJECT_NAME":"STARLINK-2659","APOAPSIS":"548.498","INCLINATION":"53.0542","TIME_SYSTEM":"UTC","MEAN_MOTION_DDOT":"0.0000000000000","FILE":"3191844","MEAN_ELEMENT_THEORY":"SGP4"},{"REF_FRAME":"TEME","NORAD_CAT_ID":"48468","CENTER_NAME":"EARTH","RCS_SIZE":"LARGE","BSTAR":"-0.00000793830000","PERIOD":"95.592","DECAY_DATE":null,"CLASSIFICATION_TYPE":"U","EPOCH":"2021-10-29T21:52:19.392384","ELEMENT_SET_NO":"999","SEMIMAJOR_AXIS":"6925.363","REV_AT_EPOCH":"2658","RA_OF_ASC_NODE":"137.3771","EPHEMERIS_TYPE":"0","SITE":"AFETR","TLE_LINE2":"2 48468  53.0542 137.3771 0001855  67.9296 292.1890 15.06395448 26585","MEAN_MOTION_DOT":"-0.00000400","ARG_OF_PERICENTER":"67.9296","COUNTRY_CODE":"US","TLE_LINE1":"1 48468U 21040AS  21302.91133556 -.00000400  00000-0 -79383-5 0  9999","OBJECT_ID":"2021-040AS","LAUNCH_DATE":"2021-05-09","MEAN_ANOMALY":"292.1890","MEAN_MOTION":"15.06395448","OBJECT_TYPE":"PAYLOAD","PERIAPSIS":"545.943","GP_ID":"188469764","OBJECT_NAME":"STARLINK-2685","ECCENTRICITY":"0.00018550","INCLINATION":"53.0542","APOAPSIS":"548.512","MEAN_MOTION_DDOT":"0.0000000000000","TIME_SYSTEM":"UTC","FILE":"3191844","MEAN_ELEMENT_THEORY":"SGP4"},{"MEAN_ANOMALY":"289.5870","LAUNCH_DATE":"2021-05-09","OBJECT_ID":"2021-040AT","OBJECT_TYPE":"PAYLOAD","PERIAPSIS":"545.943","GP_ID":"188469298","MEAN_MOTION":"15.06388513","TIME_SYSTEM":"UTC","MEAN_MOTION_DDOT":"0.0000000000000","FILE":"3191844","MEAN_ELEMENT_THEORY":"SGP4","ECCENTRICITY":"0.00018850","OBJECT_NAME":"STARLINK-2661","APOAPSIS":"548.554","INCLINATION":"53.0557","BSTAR":"-0.00002031900000","DECAY_DATE":null,"PERIOD":"95.593","REF_FRAME":"TEME","RCS_SIZE":"LARGE","NORAD_CAT_ID":"48469","CENTER_NAME":"EARTH","TLE_LINE2":"2 48469  53.0557 137.6239 0001885  70.5323 289.5870 15.06388513 26570","SITE":"AFETR","EPHEMERIS_TYPE":"0","COUNTRY_CODE":"US","TLE_LINE1":"1 48469U 21040AT  21302.85974288 -.00000584  00000-0 -20319-4 0  9995","ARG_OF_PERICENTER":"70.5323","MEAN_MOTION_DOT":"-0.00000584","CLASSIFICATION_TYPE":"U","EPOCH":"2021-10-29T20:38:01.784832","SEMIMAJOR_AXIS":"6925.384","ELEMENT_SET_NO":"999","REV_AT_EPOCH":"2657","RA_OF_ASC_NODE":"137.6239"},{"MEAN_MOTION":"15.06383390","PERIAPSIS":"545.676","GP_ID":"188469875","OBJECT_TYPE":"PAYLOAD","LAUNCH_DATE":"2021-05-09","MEAN_ANOMALY":"278.7854","OBJECT_ID":"2021-040AU","INCLINATION":"53.0543","APOAPSIS":"548.853","OBJECT_NAME":"STARLINK-2675","ECCENTRICITY":"0.00022940","FILE":"3191844","MEAN_ELEMENT_THEORY":"SGP4","MEAN_MOTION_DDOT":"0.0000000000000","TIME_SYSTEM":"UTC","CENTER_NAME":"EARTH","NORAD_CAT_ID":"48470","RCS_SIZE":"LARGE","REF_FRAME":"TEME","PERIOD":"95.593","DECAY_DATE":null,"BSTAR":"-0.00007724400000","RA_OF_ASC_NODE":"138.8199","ELEMENT_SET_NO":"999","SEMIMAJOR_AXIS":"6925.399","REV_AT_EPOCH":"2652","CLASSIFICATION_TYPE":"U","EPOCH":"2021-10-29T14:10:33.792960","MEAN_MOTION_DOT":"-0.00001432","ARG_OF_PERICENTER":"81.3395","COUNTRY_CODE":"US","TLE_LINE1":"1 48470U 21040AU  21302.59066890 -.00001432  00000-0 -77244-4 0  9991","EPHEMERIS_TYPE":"0","SITE":"AFETR","TLE_LINE2":"2 48470  53.0543 138.8199 0002294  81.3395 278.7854 15.06383390 26524"},{"MEAN_ANOMALY":"276.5431","LAUNCH_DATE":"2021-05-09","OBJECT_ID":"2021-040AV","MEAN_MOTION":"15.06402350","OBJECT_TYPE":"PAYLOAD","PERIAPSIS":"545.806","GP_ID":"188469182","MEAN_MOTION_DDOT":"0.0000000000000","TIME_SYSTEM":"UTC","FILE":"3191844","MEAN_ELEMENT_THEORY":"SGP4","ECCENTRICITY":"0.00020220","OBJECT_NAME":"STARLINK-2684","INCLINATION":"53.0547","APOAPSIS":"548.607","BSTAR":"0.00009966200000","PERIOD":"95.592","DECAY_DATE":null,"REF_FRAME":"TEME","NORAD_CAT_ID":"48471","CENTER_NAME":"EARTH","RCS_SIZE":"LARGE","SITE":"AFETR","EPHEMERIS_TYPE":"0","TLE_LINE2":"2 48471  53.0547 137.3732 0002022  83.5788 276.5431 15.06402350 26575","ARG_OF_PERICENTER":"83.5788","MEAN_MOTION_DOT":"0.00001203","TLE_LINE1":"1 48471U 21040AV  21302.91501956  .00001203  00000-0  99662-4 0  9997","COUNTRY_CODE":"US","EPOCH":"2021-10-29T21:57:37.689984","CLASSIFICATION_TYPE":"U","SEMIMAJOR_AXIS":"6925.341","REV_AT_EPOCH":"2657","ELEMENT_SET_NO":"999","RA_OF_ASC_NODE":"137.3732"},{"TLE_LINE1":"1 48472U 21040AW  21302.76389031  .00000136  00000-0  28048-4 0  9993","COUNTRY_CODE":"US","ARG_OF_PERICENTER":"84.1898","MEAN_MOTION_DOT":"0.00000136","TLE_LINE2":"2 48472  53.0497 138.0579 0001873  84.1898 275.9305 15.06408121 26541","EPHEMERIS_TYPE":"0","SITE":"AFETR","RA_OF_ASC_NODE":"138.0579","CLASSIFICATION_TYPE":"U","EPOCH":"2021-10-29T18:20:00.122784","REV_AT_EPOCH":"2654","SEMIMAJOR_AXIS":"6925.324","ELEMENT_SET_NO":"999","DECAY_DATE":null,"PERIOD":"95.592","BSTAR":"0.00002804800000","RCS_SIZE":"LARGE","NORAD_CAT_ID":"48472","CENTER_NAME":"EARTH","REF_FRAME":"TEME","FILE":"3191844","MEAN_ELEMENT_THEORY":"SGP4","TIME_SYSTEM":"UTC","MEAN_MOTION_DDOT":"0.0000000000000","APOAPSIS":"548.486","INCLINATION":"53.0497","ECCENTRICITY":"0.00018730","OBJECT_NAME":"STARLINK-2722","OBJECT_TYPE":"PAYLOAD","GP_ID":"188469411","PERIAPSIS":"545.892","MEAN_MOTION":"15.06408121","LAUNCH_DATE":"2021-05-09","OBJECT_ID":"2021-040AW","MEAN_ANOMALY":"275.9305"}];
